ONEWEB-0300             
1 49089U 21075Q   25165.64082185  .00000198  00000+0  51641-3 0  9995
2 49089  87.8882  63.7570 0001547  81.6225 278.5079 13.12440773186995
ONEWEB-0301             
1 49090U 21075R   25165.70083883  .00000374  00000+0  10038-2 0  9990
2 49090  87.8882  63.7507 0001459  84.3438 275.7857 13.12444282186368
ONEWEB-0302             
1 49091U 21075S   25165.76408839 -.00000138  00000+0 -41807-3 0  9998
2 49091  87.8880  63.7391 0002298  77.5994 282.5391 13.12444828186355
ONEWEB-0304             
1 49092U 21075T   25165.78915182  .00000007  00000+0 -15667-4 0  9995
2 49092  87.9069  79.0115 0002002  73.9537 286.1815 13.17648565185197
ONEWEB-0305             
1 49093U 21075U   25165.78239961  .00000083  00000+0  17970-3 0  9991
2 49093  87.9068  78.9905 0002030  65.7103 294.4240 13.17649857185224
ONEWEB-0308             
1 49094U 21075V   25165.75760330 -.00000181  00000+0 -53838-3 0  9992
2 49094  87.8881  63.7352 0001880  80.0077 280.1264 13.12443981186366
ONEWEB-0309             
1 49095U 21075W   25165.78579127 -.00000001  00000+0 -35745-4 0  9997
2 49095  87.9066  79.0056 0002435  79.0298 281.1107 13.17650102185191
ONEWEB-0310             
1 49096U 21075X   25165.69596655  .00000417  00000+0  11243-2 0  9997
2 49096  87.8892  63.7891 0002021  78.3702 281.7653 13.12442968186982
